satname,norad_id,inclination_deg,eccentricity,mean_motion_rev_per_day,perigee_km,apogee_km,l1,l2
STARLINK-1366,45569,53.0537,0.0001223,15.39095551,447.9476346900401,449.6174992161159,1 45569U 20025AQ  25302.58336806  .00068194  00000+0  17289-2 0  9995,2 45569  53.0537 312.6993 0001223  75.9728  56.6962 15.39095551  5487
STARLINK-1376,45570,53.0555,0.0001373,15.06402707,546.2524121676925,548.1541106034692,1 45570U 20025AR  25302.32148406  .00001969  00000+0  15103-3 0  9997,2 45570  53.0555 316.3552 0001373  83.9022 276.2124 15.06402707305564
STARLINK-1320,45572,53.0574,0.0008822,15.4220363,433.5924510762943,445.6216787043868,1 45572U 20025AT  25302.12883745  .00184090  00000+0  41286-2 0  9996,2 45572  53.0574 261.1801 0008822  10.0554 350.0625 15.42203630306346
STARLINK-1321,45573,53.0548,0.0001335,15.06401761,546.2816274202087,548.1306940441245,1 45573U 20025AU  25302.30765567  .00002020  00000+0  15444-3 0  9998,2 45573  53.0548 306.4157 0001335  88.9945 271.1197 15.06401761305403
STARLINK-1328,45576,53.0513,0.0010429,15.67210565,359.8542934463876,373.9230680112514,1 45576U 20025AX  25302.58336806  .00181790  00000+0  16273-2 0  9993,2 45576  53.0513 282.3392 0010429  32.0896 181.4065 15.67210565  5939
STARLINK-1331,45578,53.056,0.0001786,15.06411643,545.939013170705,548.4127349293158,1 45578U 20025AZ  25302.28554622  .00001877  00000+0  14486-3 0  9992,2 45578  53.0560 306.5157 0001786  90.9460 269.1734 15.06411643305716
STARLINK-1333,45580,53.0547,0.0001433,15.06417715,546.164869878663,548.1496592148815,1 45580U 20025BB  25302.35834322  .00002248  00000+0  16965-3 0  9998,2 45580  53.0547 316.1868 0001433  87.2789 272.8364 15.06417715305572
STARLINK-1335,45581,53.0554,0.0001431,15.06408131,546.1956238938919,548.1776515190031,1 45581U 20025BC  25302.29660298  .00002443  00000+0  18283-3 0  9993,2 45581  53.0554 306.4663 0001431  88.1620 271.9533 15.06408131305703
STARLINK-1337,45582,53.0552,0.0001427,15.06398297,546.2285294088833,548.2050253769521,1 45582U 20025BD  25302.31872140  .00006154  00000+0  43169-3 0  9992,2 45582  53.0552 306.3686 0001427  95.5665 264.5487 15.06398297305709
STARLINK-1347,45586,53.0555,0.0007144,15.31209453,467.3087980158816,477.09656335164163,1 45586U 20025BH  25302.58336806  .00062310  00000+0  20323-2 0  9991,2 45586  53.0555 291.0308 0007144 349.9619 131.9780 15.31209453  5842
STARLINK-1360,45588,53.0445,0.0005899,15.74489218,342.11844525423567,350.05168244516517,1 45588U 20025BK  25301.47146858  .00119498  00000+0  79754-3 0  9999,2 45588  53.0445 215.8073 0005899 113.9039 246.2598 15.74489218306909
STARLINK-1364,45589,53.0551,0.0001348,15.06407532,546.2549396654358,548.1220074131024,1 45589U 20025BL  25302.32240736  .00001831  00000+0  14177-3 0  9994,2 45589  53.0551 306.3535 0001348  90.8057 269.3087 15.06407532305705
STARLINK-1365,45590,53.0557,0.0001358,15.06390147,546.3012896937025,548.1822225638671,1 45590U 20025BM  25302.40441493  .00001514  00000+0  12051-3 0  9995,2 45590  53.0557 335.9806 0001358  92.7756 267.3388 15.06390147305312
STARLINK-1443,45660,53.0547,0.0001449,15.06395616,546.2215093464774,548.2284792524251,1 45660U 20035D   25302.25698005  .00004427  00000+0  31597-3 0  9992,2 45660  53.0547 296.6433 0001449  93.1042 267.0113 15.06395616298929
STARLINK-1446,45663,53.0264,0.0001224,15.33272151,465.2197703980746,466.89522921162643,1 45663U 20035G   25302.17360808  .00059092  00000+0  18095-2 0  9998,2 45663  53.0264 260.3738 0001224  32.2238 327.8837 15.33272151299428
STARLINK-1448,45665,53.0545,0.000146,15.06405692,546.1830144905334,548.205211175481,1 45665U 20035J   25302.26066615  .00003245  00000+0  23660-3 0  9993,2 45665  53.0545 296.6234 0001460  90.7702 269.3455 15.06405692298919
STARLINK-1451,45668,53.0542,0.0001523,15.06413991,546.113953815493,548.2234019249727,1 45668U 20035M   25302.26438974  .00004404  00000+0  31422-3 0  9990,2 45668  53.0542 296.9277 0001523  95.2173 264.8990 15.06413991298927
STARLINK-1452,45669,53.043,0.001099,15.26087323,479.976991076177,495.06771032902,1 45669U 20035N   25302.20253078  .00065378  00000+0  24900-2 0  9994,2 45669  53.0430 278.4900 0010990   8.7130 351.4056 15.26087323299174
STARLINK-1453,45670,53.0535,0.0001329,15.0638923,546.3241834235705,548.1649498439829,1 45670U 20035P   25302.20814311 -.00002147  00000+0 -12529-3 0  9991,2 45670  53.0535 266.8656 0001329  97.3764 262.7376 15.06389230299229
STARLINK-1454,45671,53.0553,0.0001328,15.06400843,546.2892883205132,548.1286602112796,1 45671U 20035Q   25302.28646556  .00002530  00000+0  18867-3 0  9999,2 45671  53.0553 296.5138 0001328  92.2404 267.8737 15.06400843298915
STARLINK-1456,45673,53.0544,0.0001334,15.06406724,546.2671111748477,548.1147886718863,1 45673U 20035S   25302.30120875  .00006280  00000+0  44001-3 0  9990,2 45673  53.0544 296.4475 0001334  93.9642 266.1500 15.06406724298935
STARLINK-1457,45674,53.0549,0.0001396,15.06670576,545.4157426667616,547.3490684847993,1 45674U 20035T   25302.30823662  .00039501  00000+0  26367-2 0  9991,2 45674  53.0549 296.4117 0001396 101.8761 258.2384 15.06670576298900
STARLINK-1458,45675,53.0544,0.0001334,15.06409192,546.2595481859407,548.1072236649052,1 45675U 20035U   25302.29753139  .00008573  00000+0  59358-3 0  9993,2 45675  53.0544 296.4605 0001334 101.8917 258.2222 15.06409192298896
STARLINK-1460,45676,53.0549,0.0001525,15.06405392,546.138919149239,548.2511454190853,1 45676U 20035V   25302.26804357  .00002920  00000+0  21478-3 0  9992,2 45676  53.0549 296.5925 0001525  95.2946 264.8217 15.06405392298882
STARLINK-1392,45677,53.0549,0.0001354,15.06419219,546.2149708782663,548.0903393168674,1 45677U 20035W   25302.27908930  .00005089  00000+0  36010-3 0  9993,2 45677  53.0549 296.5483 0001354  93.6743 266.4401 15.06419219298920
STARLINK-1394,45679,53.0537,0.0001572,15.064314,546.0266734671377,548.2039727975307,1 45679U 20035Y   25302.27633717  .00011372  00000+0  78045-3 0  9999,2 45679  53.0537 286.5557 0001572  88.9815 271.1354 15.06431400299061
STARLINK-1402,45685,53.0533,0.000176,15.26575732,484.84978585078625,487.26598245000696,1 45685U 20035AE  25302.50003471  .00010215  00000+0  39783-3 0  9991,2 45685  53.0533 278.5950 0001760  92.9402 225.5766 15.26575732  5679
STARLINK-1404,45686,53.055,0.0001419,15.06412438,546.1907359708866,548.1561390730558,1 45686U 20035AF  25302.23578511  .00003040  00000+0  22279-3 0  9994,2 45686  53.0550 286.7414 0001419  90.9623 269.1528 15.06412438299068
STARLINK-1413,45689,53.0543,0.000135,15.06405293,546.2604158377881,548.1302555684279,1 45689U 20035AJ  25302.25421846  .00002004  00000+0  15340-3 0  9997,2 45689  53.0543 286.6538 0001350  94.6221 265.4922 15.06405293298975
STARLINK-1417,45693,53.0539,0.0001356,15.06410462,546.2404206841229,548.118566517187,1 45693U 20035AN  25302.18418324  .00002353  00000+0  17674-3 0  9990,2 45693  53.0539 286.9722 0001356  91.3340 268.7804 15.06410462299043
STARLINK-1420,45695,53.0544,0.0001565,15.06407248,546.1055303784206,548.2731575240759,1 45695U 20035AQ  25302.18508025  .00001657  00000+0  13007-3 0  9992,2 45695  53.0544 266.9568 0001565  93.9011 266.2157 15.06407248299336
STARLINK-1422,45696,53.0546,0.0001464,15.06416552,546.1469653045497,548.1746925088537,1 45696U 20035AR  25302.26158053  .00002888  00000+0  21259-3 0  9999,2 45696  53.0546 286.6249 0001464  90.2440 269.8717 15.06416552299056
STARLINK-1351,45697,53.0556,0.0001665,15.06394898,546.0741217391424,548.3802680160352,1 45697U 20035AS  25302.17130038 -.00000620  00000+0 -22760-4 0  9996,2 45697  53.0556 267.0320 0001665  82.3080 277.8098 15.06394898299336
STARLINK-1398,45699,53.0494,0.0004733,15.50687345,411.50297225161376,417.93308882351994,1 45699U 20035AU  25302.51654722  .00117192  00000+0  19840-2 0  9991,2 45699  53.0494 225.7693 0004733  95.1115 265.0433 15.50687345299943
STARLINK-1400,45700,53.0532,0.0001234,15.06401319,546.3529278829983,548.0621029093982,1 45700U 20035AV  25302.21183481  .00008004  00000+0  55557-3 0  9997,2 45700  53.0532 266.8476 0001234  90.8613 269.2518 15.06401319299331
STARLINK-1403,45701,53.0549,0.0001537,15.06408276,546.121771131553,548.2506154811763,1 45701U 20035AW  25302.17496635  .00002916  00000+0  21453-3 0  9995,2 45701  53.0549 267.0105 0001537  98.9921 261.1242 15.06408276299322
STARLINK-1407,45703,53.0396,0.0011827,15.40858636,435.505859553291,451.6419345091281,1 45703U 20035AY  25302.08789079  .00100418  00000+0  23827-2 0  9996,2 45703  53.0396 226.6060 0011827  50.2629 309.9415 15.40858636299896
STARLINK-1411,45706,53.0518,0.0002335,15.39982661,444.5670681908332,447.754015142792,1 45706U 20035BB  25302.50003471  .00132794  00000+0  32332-2 0  9994,2 45706  53.0518 251.7887 0002335 108.8507 328.9283 15.39982661  5848
STARLINK-1423,45710,53.0538,0.0001184,15.06410736,546.358696466551,547.9986112133811,1 45710U 20035BF  25302.20076383  .00000291  00000+0  38412-4 0  9991,2 45710  53.0538 266.8985 0001184 100.5789 259.5333 15.06410736299330
STARLINK-1433,45711,53.0539,0.000169,15.06430598,545.9474130045255,548.2881491205253,1 45711U 20035BG  25302.18233899  .00011619  00000+0  79700-3 0  9996,2 45711  53.0539 266.9779 0001690  84.9662 275.1520 15.06430598299320
STARLINK-1434,45712,53.0496,0.0005228,15.15269747,516.5533231723575,523.7661822569953,1 45712U 20035BH  25302.15929130  .00054698  00000+0  28666-2 0  9992,2 45712  53.0496 263.3874 0005228  56.0530 304.0959 15.15269747299385
STARLINK-1465,45731,53.055,0.0001763,15.0640648,545.9707622933483,548.4126331921725,1 45731U 20038B   25300.88857723 -.00000591  00000+0 -20779-4 0  9996,2 45731  53.0550 112.7837 0001763  90.6506 269.4685 15.06406480296171
STARLINK-1471,45735,53.0515,0.0001421,15.40775926,442.84862472140503,444.78742433937623,1 45735U 20038F   25302.47815748  .00024238  00000+0  59109-3 0  9998,2 45735  53.0515  46.4236 0001421 139.6890 220.4219 15.40775926297255
